NORAD_CAT_ID,OBJECT_NAME,OBJECT_TYPE,EPOCH,MEAN_MOTION,ECCENTRICITY,INCLINATION,RA_OF_ASC_NODE,ARG_OF_PERICENTER,MEAN_ANOMALY,BSTAR,MEAN_MOTION_DOT,MEAN_MOTION_DDOT,TLE_LINE0,TLE_LINE1,TLE_LINE2,SEMIMAJOR_AXIS,PERIOD,APOGEE,PERIGEE,DECAYED
55784.0,STARLINK-5797,PAYLOAD,2023-08-09 00:32:42,15.69926737,0.0003447,69.9986,70.2212,260.5279,99.5527,5.4312e-06,4.4e-06,0.0,0 STARLINK-5797,1 55784U 23028AV  23221.02271574  .00000440  00000-0  54312-5 0  9990,2 55784  69.9986  70.2212 0003447 260.5279  99.5527 15.69926737 25516,6737.244,91.724,361.431,356.786,0.0
55784.0,STARLINK-5797,PAYLOAD,2023-08-10 07:07:45,15.69910822,0.0003162,69.9984,66.6377,271.4259,88.6574,1.3182e-05,1.372e-05,0.0,0 STARLINK-5797,1 55784U 23028AV  23222.29705790  .00001372  00000-0  13182-4 0  9996,2 55784  69.9984  66.6377 0003162 271.4259  88.6574 15.69910822 25719,6737.289,91.725,361.284,357.024,0.0
55784.0,STARLINK-5797,PAYLOAD,2023-08-10 23:57:01,15.69926383,0.0003238,69.9972,64.6668,263.3494,96.7333,1.1797e-05,1.206e-05,0.0,0 STARLINK-5797,1 55784U 23028AV  23222.99793299  .00001206  00000-0  11797-4 0  9990,2 55784  69.9972  64.6668 0003238 263.3494  96.7333 15.69926383 25826,6737.245,91.724,361.291,356.928,0.0
55784.0,STARLINK-5797,PAYLOAD,2023-08-11 22:53:28,15.69795897,0.0003894,69.9975,61.9818,268.6498,91.4252,-0.00014472,-0.00017488,0.0,0 STARLINK-5797,1 55784U 23028AV  23223.95379704 -.00017488  00000-0 -14472-3 0  9991,2 55784  69.9975  61.9818 0003894 268.6498  91.4252 15.69795897 25978,6737.618,91.732,362.107,356.859,0.0
55784.0,STARLINK-5797,PAYLOAD,2023-08-12 12:39:24,15.69701992,0.000542,69.9972,60.3708,250.9876,109.0733,-0.00019973,-0.00023955,0.0,0 STARLINK-5797,1 55784U 23028AV  23224.52736869 -.00023955  00000-0 -19973-3 0  9991,2 55784  69.9972  60.3708 0005420 250.9876 109.0733 15.69701992 26061,6737.887,91.737,363.404,356.1,0.0
55784.0,STARLINK-5797,PAYLOAD,2023-08-13 14:00:01,15.66413783,0.0003431,70.0001,57.4122,267.9251,288.294,-0.0096887,-0.00919879,0.0,0 STARLINK-5797,1 55784U 23028AV  23225.58334491 -.00919879  00000-0 -96887-2 0  9990,2 55784  70.0001  57.4122 0003431 267.9251 288.2940 15.66413783 26222,6747.313,91.93,371.493,366.863,0.0
55784.0,STARLINK-5797,PAYLOAD,2023-08-14 14:00:01,15.64461571,0.0003493,69.9996,54.619,270.5119,159.5006,-0.01063,-0.00932064,0.0,0 STARLINK-5797,1 55784U 23028AV  23226.58334491 -.00932064  00000-0 -10630-1 0  9993,2 55784  69.9996  54.6190 0003493 270.5119 159.5006 15.64461571 26383,6752.925,92.044,377.149,372.431,0.0
55784.0,STARLINK-5797,PAYLOAD,2023-08-15 18:00:00,15.62165522,0.0003482,69.9997,51.3708,274.2981,239.5869,-0.01155,-0.00925723,0.0,0 STARLINK-5797,1 55784U 23028AV  23227.75001157 -.00925723  00000-0 -11550-1 0  9999,2 55784  69.9997  51.3708 0003482 274.2981 239.5869 15.62165522 26560,6759.54,92.18,383.759,379.051,0.0
55784.0,STARLINK-5797,PAYLOAD,2023-08-16 22:00:00,15.59855672,0.000339,69.9996,48.1333,276.134,312.0353,-0.011854,-0.00873664,0.0,0 STARLINK-5797,1 55784U 23028AV  23228.91667824 -.00873664  00000-0 -11854-1 0  9990,2 55784  69.9996  48.1333 0003390 276.1340 312.0353 15.59855672 26748,6766.211,92.316,390.37,385.783,0.0
55784.0,STARLINK-5797,PAYLOAD,2023-08-17 14:00:01,15.58600862,0.0003651,69.9999,46.2889,271.7175,97.4287,-0.013584,-0.00947098,0.0,0 STARLINK-5797,1 55784U 23028AV  23229.58334491 -.00947098  00000-0 -13584-1 0  9990,2 55784  69.9999  46.2889 0003651 271.7175  97.4287 15.58600862 26853,6769.843,92.391,394.179,389.236,0.0
55784.0,STARLINK-5797,PAYLOAD,2023-08-18 14:00:01,15.56637588,0.0003494,70.0,43.5281,270.8067,303.9726,-0.014452,-0.00936798,0.0,0 STARLINK-5797,1 55784U 23028AV  23230.58334491 -.00936798  00000-0 -14452-1 0  9992,2 55784  70.0000  43.5281 0003494 270.8067 303.9726 15.56637588 27004,6775.534,92.507,399.766,395.031,0.0
55784.0,STARLINK-5797,PAYLOAD,2023-08-19 14:00:01,15.54683648,0.0003619,70.0001,40.7759,274.3732,139.0615,-0.015713,-0.00946419,0.0,0 STARLINK-5797,1 55784U 23028AV  23231.58335648 -.00946419  00000-0 -15713-1 0  9990,2 55784  70.0001  40.7759 0003619 274.3732 139.0615 15.54683648 27169,6781.209,92.623,405.529,400.62,0.0
55784.0,STARLINK-5797,PAYLOAD,2023-08-20 06:00:02,15.53327067,0.0003346,70.0002,38.9454,274.466,267.4721,-0.015145,-0.00874682,0.0,0 STARLINK-5797,1 55784U 23028AV  23232.25002315 -.00874682  00000-0 -15145-1 0  9998,2 55784  70.0002  38.9454 0003346 274.4660 267.4721 15.53327067 27263,6785.157,92.704,409.292,404.752,0.0
55784.0,STARLINK-5797,PAYLOAD,2023-08-20 22:00:00,15.52010871,0.0003585,70.0004,37.1188,278.804,28.423,-0.015021,-0.00831104,0.0,0 STARLINK-5797,1 55784U 23028AV  23232.91667824 -.00831104  00000-0 -15021-1 0  9998,2 55784  70.0004  37.1188 0003585 278.8040  28.4230 15.52010871 27367,6788.993,92.783,413.291,408.424,0.0
55784.0,STARLINK-5797,PAYLOAD,2023-08-21 04:00:00,15.51384933,0.0003415,70.0003,36.4347,277.1187,346.3266,-0.0046159,-0.00263988,0.0,0 STARLINK-5797,1 55784U 23028AV  23233.16667824 -.00263988  00000-0 -46159-2 0  9992,2 55784  70.0003  36.4347 0003415 277.1187 346.3266 15.51384933 27409,6790.819,92.82,415.003,410.365,0.0
55784.0,STARLINK-5797,PAYLOAD,2023-08-21 12:00:00,15.51238903,0.0003504,70.0007,35.5232,272.1848,52.2386,-0.00020492,-0.0001219,0.0,0 STARLINK-5797,1 55784U 23028AV  23233.50001157 -.00012190  00000-0 -20492-3 0  9991,2 55784  70.0007  35.5232 0003504 272.1848  52.2386 15.51238903 27450,6791.245,92.829,415.489,410.73,0.0
55784.0,STARLINK-5797,PAYLOAD,2023-08-22 14:00:01,15.51451178,0.0003513,70.0006,32.5616,270.1142,342.2416,-0.014993,-0.00814465,0.0,0 STARLINK-5797,1 55784U 23028AV  23234.58334491 -.00814465  00000-0 -14993-1 0  9992,2 55784  70.0006  32.5616 0003513 270.1142 342.2416 15.51451178 27623,6790.625,92.816,414.876,410.105,0.0
55784.0,STARLINK-5797,PAYLOAD,2023-08-22 22:00:00,15.50844862,0.0003623,70.0002,31.6504,276.7996,36.399,-0.016596,-0.00876338,0.0,0 STARLINK-5797,1 55784U 23028AV  23234.91667824 -.00876338  00000-0 -16596-1 0  9996,2 55784  70.0002  31.6504 0003623 276.7996  36.3990 15.50844862 27674,6792.395,92.853,416.721,411.799,0.0
55784.0,STARLINK-5797,PAYLOAD,2023-08-23 12:00:00,15.49736823,0.0003506,70.0008,30.0579,271.0361,56.7749,-0.018213,-0.00932894,0.0,0 STARLINK-5797,1 55784U 23028AV  23235.50001157 -.00932894  00000-0 -18213-1 0  9991,2 55784  70.0008  30.0579 0003506 271.0361  56.7749 15.49736823 27773,6795.632,92.919,419.88,415.115,0.0
55784.0,STARLINK-5797,PAYLOAD,2023-08-24 22:00:00,15.46948851,0.0003454,70.0001,26.2011,277.3042,24.6424,-0.019687,-0.00915904,0.0,0 STARLINK-5797,1 55784U 23028AV  23236.91667824 -.00915904  00000-0 -19687-1 0  9995,2 55784  70.0001  26.2011 0003454 277.3042  24.6424 15.46948851  6034,6803.795,93.086,428.01,423.31,0.0
55784.0,STARLINK-5797,PAYLOAD,2023-08-25 14:00:01,15.4566787,0.0003556,70.0001,24.3923,276.375,135.557,-0.02163,-0.00958921,0.0,0 STARLINK-5797,1 55784U 23028AV  23237.58334491 -.00958921  00000-0 -21630-1 0  9997,2 55784  70.0001  24.3923 0003556 276.3750 135.5570 15.45667870 28095,6807.553,93.164,431.839,426.998,0.0
55784.0,STARLINK-5797,PAYLOAD,2023-08-26 00:00:02,15.44854726,0.0003347,69.9996,23.2631,278.4746,290.6798,-0.022506,-0.00969299,0.0,0 STARLINK-5797,1 55784U 23028AV  23238.00002315 -.00969299  00000-0 -22506-1 0  9995,2 55784  69.9996  23.2631 0003347 278.4746 290.6798 15.44854726  5991,6809.942,93.213,434.086,429.528,0.0
55784.0,STARLINK-5797,PAYLOAD,2023-08-26 06:00:00,15.44296911,0.0003372,69.9998,22.5864,274.5494,244.2663,-0.019884,-0.0083884,0.0,0 STARLINK-5797,1 55784U 23028AV  23238.25001157 -.00838840  00000-0 -19884-1 0  9997,2 55784  69.9998  22.5864 0003372 274.5494 244.2663 15.44296911 28197,6811.582,93.246,435.744,431.15,0.0
55784.0,STARLINK-5797,PAYLOAD,2023-08-26 14:00:01,15.43703601,0.0003445,70.0001,21.6848,275.9338,295.1242,-0.022857,-0.00948428,0.0,0 STARLINK-5797,1 55784U 23028AV  23238.58334491 -.00948428  00000-0 -22857-1 0  9991,2 55784  70.0001  21.6848 0003445 275.9338 295.1242 15.43703601  5988,6813.327,93.282,437.539,432.845,0.0
55784.0,STARLINK-5797,PAYLOAD,2023-08-26 22:00:00,15.43036826,0.000357,69.9995,20.784,278.6382,343.8987,-0.022631,-0.00920526,0.0,0 STARLINK-5797,1 55784U 23028AV  23238.91667824 -.00920526  00000-0 -22631-1 0  9996,2 55784  69.9995  20.7840 0003570 278.6382 343.8987 15.43036826 28291,6815.29,93.322,439.588,434.722,0.0
55784.0,STARLINK-5797,PAYLOAD,2023-08-27 14:00:01,15.41746826,0.0003581,70.0001,18.9851,276.5444,86.5955,-0.024418,-0.00948554,0.0,0 STARLINK-5797,1 55784U 23028AV  23239.58334491 -.00948554  00000-0 -24418-1 0  9997,2 55784  70.0001  18.9851 0003581 276.5444  86.5955 15.41746826  6019,6819.091,93.401,443.398,438.514,0.0
55784.0,STARLINK-5797,PAYLOAD,2023-08-27 22:00:00,15.41083313,0.000358,69.9997,18.087,281.6985,130.5729,-0.024276,-0.00924457,0.0,0 STARLINK-5797,1 55784U 23028AV  23239.91667824 -.00924457  00000-0 -24276-1 0  9991,2 55784  69.9997  18.0870 0003580 281.6985 130.5729 15.41083313 28454,6821.048,93.441,445.355,440.471,0.0
55784.0,STARLINK-5797,PAYLOAD,2023-08-28 22:00:00,15.39134774,0.0003363,69.9998,15.3983,281.3084,273.6545,-0.026359,-0.0093965,0.0,0 STARLINK-5797,1 55784U 23028AV  23240.91667824 -.00939650  00000-0 -26359-1 0  9998,2 55784  69.9998  15.3983 0003363 281.3084 273.6545 15.39134774 28603,6826.804,93.559,450.964,446.373,0.0
55784.0,STARLINK-5797,PAYLOAD,2023-08-29 22:00:00,15.37176045,0.0003441,70.0,12.718,277.9411,52.678,-0.028076,-0.00938879,0.0,0 STARLINK-5797,1 55784U 23028AV  23241.91667824 -.00938879  00000-0 -28076-1 0  9999,2 55784  70.0000  12.7180 0003441 277.9411  52.6780 15.37176045  5844,6832.602,93.678,456.818,452.116,0.0
55784.0,STARLINK-5797,PAYLOAD,2023-08-30 04:00:00,15.36642949,0.0003336,70.0005,12.0491,271.9923,1.4541,-0.026367,-0.00872112,0.0,0 STARLINK-5797,1 55784U 23028AV  23242.16667824 -.00872112  00000-0 -26367-1 0  9995,2 55784  70.0005  12.0491 0003336 271.9923   1.4541 15.36642949 28798,6834.182,93.711,458.327,453.767,0.0
